STARLINK-4004           
1 52656U 22053A   22165.91667824 -.00714853  00000+0 -10512-1 0  9994
2 52656  53.2172 162.3825 0001320  53.5521  50.6291 15.57279220  1307
STARLINK-4084           
1 52657U 22053B   22165.91667824 -.00714894  00000+0 -10518-1 0  9996
2 52657  53.2173 162.3662 0001362  50.2381  51.6493 15.57265447  1303
STARLINK-4082           
1 52658U 22053C   22165.91667824 -.00714755  00000+0 -10512-1 0  9997
2 52658  53.2172 162.3737 0001422  46.7270  56.6898 15.57274502  1306
STARLINK-3960           
1 52659U 22053D   22165.91667824 -.00714821  00000+0 -10515-1 0  9995
2 52659  53.2173 162.3723 0001368  48.8431  53.8090 15.57269994  5265
STARLINK-4081           
1 52660U 22053E   22165.91667824 -.00715147  00000+0 -10515-1 0  9999
2 52660  53.2172 162.3908 0001257  58.0182  46.9273 15.57284020  5144
STARLINK-4042           
1 52661U 22053F   22165.91667824 -.00715086  00000+0 -10512-1 0  9999
2 52661  53.2173 162.3989 0001328  51.6923  54.0176 15.57288607  5075
STARLINK-4044           
1 52662U 22053G   22165.91667824 -.00713824  00000+0 -10488-1 0  9990
2 52662  53.2172 162.4163 0001458  41.5127  65.7260 15.57297188  5075
STARLINK-4037           
1 52663U 22053H   22165.91667824 -.00715126  00000+0 -10507-1 0  9990
2 52663  53.2173 162.4244 0001366  50.3739  57.6288 15.57302592  5078
STARLINK-4070           
1 52664U 22053J   22165.91667824 -.00714921  00000+0 -10507-1 0  9993
2 52664  53.2172 162.4076 0001517  41.9861  64.4882 15.57293139  5073
STARLINK-4064           
1 52665U 22053K   22165.91667824 -.00714962  00000+0 -10496-1 0  9996
2 52665  53.2173 162.4482 0001732  33.4108  77.6486 15.57320883  5078
STARLINK-4079           
1 52666U 22053L   22165.91667824 -.00714891  00000+0 -10501-1 0  9995
2 52666  53.2173 162.4331 0001516  42.0879  66.6790 15.57307081  5074
STARLINK-4076           
1 52667U 22053M   22165.91667824 -.00715262  00000+0 -10500-1 0  9998
2 52667  53.2173 162.4566 0001369  50.4074  61.4158 15.57325755  5070
STARLINK-4067           
1 52668U 22053N   22165.91667824 -.00715176  00000+0 -10504-1 0  9997
2 52668  53.2173 162.4415 0001407  47.2820  62.2490 15.57311885  5077
STARLINK-3972           
1 52669U 22053P   22165.91667824 -.00715394  00000+0 -10497-1 0  9991
2 52669  53.2173 162.4819 0001220  63.0376  51.0773 15.57339751  5062
STARLINK-4075           
1 52670U 22053Q   22165.91667824 -.00715326  00000+0 -10505-1 0  9998
2 52670  53.2173 162.4473 0001247  61.2059  49.0891 15.57316617  4633
STARLINK-4071           
1 52671U 22053R   22166.25001157 -.00712581  00000+0 -10652-1 0  9991
2 52671  53.2173 160.8838 0001562  49.9796 134.4617 15.56833221  4697
STARLINK-4073           
1 52672U 22053S   22165.91667824 -.00715409  00000+0 -10501-1 0  9998
2 52672  53.2173 162.4653 0001187  66.9171  45.6700 15.57330505  4638
STARLINK-3976           
1 52673U 22053T   22165.91667824 -.00715488  00000+0 -10493-1 0  9996
2 52673  53.2173 162.5072 0001205  67.4839  48.9222 15.57353789  4637
STARLINK-3936           
1 52674U 22053U   22165.91667824 -.00715245  00000+0 -10496-1 0  9991
2 52674  53.2173 162.4736 0001386  50.7414  62.6096 15.57335038  4637
STARLINK-3934           
1 52675U 22053V   22166.25001157  .00024186  00000+0  17640-3 0  9996
2 52675  53.2138 160.1657 0002707  15.2548 127.7015 15.73178227  4691
STARLINK-4006           
1 52676U 22053W   22165.91667824 -.00715273  00000+0 -10491-1 0  9999
2 52676  53.2173 162.4989 0001367  51.0615  64.5809 15.57348973  4630
STARLINK-4028           
1 52677U 22053X   22165.91667824  .00066518  00000+0  47613-3 0  9997
2 52677  53.2139 161.8109 0002412  12.9892  42.2793 15.73123627  4646
STARLINK-4074           
1 52678U 22053Y   22166.58334491  .00011556  00000+0  86717-4 0  9994
2 52678  53.2137 158.5180 0002848  14.0590 217.1965 15.73179350  4758
STARLINK-4031           
1 52679U 22053Z   22166.25001157  .00022920  00000+0  16743-3 0  9997
2 52679  53.2154 160.1609 0002801  20.9938 124.9784 15.73177146  4692
STARLINK-3774           
1 52680U 22053AA  22166.58334491  .00013835  00000+0  10286-3 0  9996
2 52680  53.2133 158.5146 0002631  14.4121 218.0576 15.73192745  4754
STARLINK-4068           
1 52681U 22053AB  22166.58334491  .00013289  00000+0  99055-4 0  9992
2 52681  53.2135 158.5077 0003173   8.3365 227.1044 15.73175064  4750
STARLINK-4017           
1 52682U 22053AC  22166.25001157  .00002056  00000+0  19110-4 0  9991
2 52682  53.2139 160.1625 0002778  16.9345 127.8554 15.73161444  4698
STARLINK-4039           
1 52683U 22053AD  22166.58334491  .00015068  00000+0  11171-3 0  9993
2 52683  53.2134 158.5054 0002671  12.9562 223.6703 15.73172755  4755
STARLINK-4014           
1 52684U 22053AE  22166.25001157  .00026204  00000+0  19073-3 0  9991
2 52684  53.2138 160.1606 0002882  20.4007 124.9511 15.73174445  4695
STARLINK-4029           
1 52685U 22053AF  22166.25001157  .00023455  00000+0  17140-3 0  9990
2 52685  53.2156 160.1514 0002670  23.0833 126.4604 15.73152388  4697
STARLINK-4005           
1 52686U 22053AG  22165.91667824  .00068202  00000+0  48819-3 0  9998
2 52686  53.2140 161.8045 0002424  13.1505  45.1151 15.73113140  4643
STARLINK-3981           
1 52687U 22053AH  22166.58334491  .00015411  00000+0  11407-3 0  9991
2 52687  53.2136 158.5001 0002771  19.1336 219.9032 15.73188240  4751
STARLINK-4032           
1 52688U 22053AJ  22165.91667824  .00073177  00000+0  52327-3 0  9996
2 52688  53.2138 161.8018 0002384  19.6873  39.7964 15.73108606  4648
STARLINK-4078           
1 52689U 22053AK  22166.58334491  .00013824  00000+0  10282-3 0  9999
2 52689  53.2151 158.4984 0002635  21.2062 219.5884 15.73184427  4752
STARLINK-4035           
1 52690U 22053AL  22166.25001157  .00023773  00000+0  17362-3 0  9995
2 52690  53.2152 160.1552 0002695  19.6937 129.2453 15.73157470  4694
STARLINK-3945           
1 52691U 22053AM  22166.25001157  .00024558  00000+0  17919-3 0  9996
2 52691  53.2155 160.1471 0002714  18.9627 133.5335 15.73157570  4696
STARLINK-3993           
1 52692U 22053AN  22166.58334491  .00013919  00000+0  10352-3 0  9996
2 52692  53.2155 158.5018 0002594   8.9285 230.6743 15.73177642  4751
STARLINK-3946           
1 52693U 22053AP  22165.91667824 -.00006042  00000+0 -38666-4 0  9992
2 52693  53.2159 161.7922 0002608  23.0099  41.8068 15.73182677  4647
STARLINK-4072           
1 52694U 22053AQ  22165.91667824  .00064924  00000+0  46475-3 0  9990
2 52694  53.2156 161.7976 0002521  15.6313  46.7889 15.73131491  4647
STARLINK-4041           
1 52695U 22053AR  22165.91667824  .00067049  00000+0  47969-3 0  9991
2 52695  53.2156 161.7891 0002421  13.3321  52.6723 15.73132028  4647
STARLINK-4025           
1 52696U 22053AS  22166.25001157  .00025541  00000+0  18609-3 0  9991
2 52696  53.2157 160.1461 0002815  20.6263 132.4611 15.73166796  4695
STARLINK-4018           
1 52697U 22053AT  22166.58334491  .00015429  00000+0  11421-3 0  9997
2 52697  53.2156 158.4901 0002515  20.2057 224.7759 15.73187279  4752
STARLINK-4030           
1 52698U 22053AU  22166.58334491 -.00010866  00000+0 -72986-4 0  9994
2 52698  53.2136 158.4915 0002456  19.2204 223.9763 15.73227612  4754
STARLINK-3987           
1 52699U 22053AV  22166.25001157  .00023667  00000+0  17266-3 0  9999
2 52699  53.2158 160.1372 0002645  24.0831 133.1772 15.73186595  4695
STARLINK-4034           
1 52700U 22053AW  22166.25001157  .00024556  00000+0  17904-3 0  9999
2 52700  53.2157 160.1405 0002555  15.1015 140.3733 15.73176022  4690
STARLINK-4003           
1 52701U 22053AX  22166.25001157  .00025932  00000+0  18888-3 0  9991
2 52701  53.2160 160.1340 0002676  13.6492 144.8180 15.73164769  4699
STARLINK-4033           
1 52702U 22053AY  22166.25001157 -.00075347  00000+0 -53699-3 0  9998
2 52702  53.2156 160.1385 0002906  14.7450 141.9272 15.73204449  4696
STARLINK-4020           
1 52703U 22053AZ  22166.25001157  .00026847  00000+0  19549-3 0  9994
2 52703  53.2154 160.1309 0002519  22.3474 137.9341 15.73150410  4692
STARLINK-3999           
1 52704U 22053BA  22166.58334491 -.00012136  00000+0 -82024-4 0  9998
2 52704  53.2156 158.4866 0002149  33.9306 212.8287 15.73237400  4758
STARLINK-3844           
1 52705U 22053BB  22166.58334491  .00017748  00000+0  13074-3 0  9999
2 52705  53.2151 158.4814 0002341  17.0588 231.4716 15.73174844  4752
STARLINK-3970           
1 52706U 22053BC  22166.25001157 -.00009955  00000+0 -66683-4 0  9992
2 52706  53.2157 160.1334 0002249  19.6671 139.4112 15.73163730  4696
STARLINK-4007           
1 52707U 22053BD  22166.25001157  .00023429  00000+0  17100-3 0  9992
2 52707  53.2155 160.1285 0002832  17.2817 143.5551 15.73181840  4699
STARLINK-3962           
1 52708U 22053BE  22166.25001157  .00025428  00000+0  18598-3 0  9996
2 52708  53.2158 160.1292 0002833  24.2958 137.0234 15.73079529  4692
FALCON 9 DEB            
1 52709U 22053BF  22166.13152156  .00260273  38719-4  55333-3 0  9990
2 52709  53.2023 157.4083 0012378  21.8470 338.3086 15.98113255  5535
FALCON 9 DEB            
1 52710U 22053BG  22165.99518302  .00300758  48698-4  59965-3 0  9999
2 52710  53.2021 157.9759 0013017  30.1592 330.0186 15.99202475  5511
FALCON 9 DEB            
1 52711U 22053BH  22166.21830826  .00403727  82902-4  68016-3 0  9997
2 52711  53.2011 156.5164 0008617  38.8574 321.3077 16.02162853  5557
FALCON 9 DEB            
1 52712U 22053BJ  22166.27067127  .00440973  98946-4  68955-3 0  9991
2 52712  53.2054 156.1359 0009965  42.8028 317.3779 16.03379512  5561
COSMOS 2556             
1 52713U 22054A   22166.49701870  .00000539  00000+0  49991-4 0  9996
2 52713  97.6942  80.6648 0011963 185.1812 174.9295 14.98473943  4086
SL-4 R/B                
1 52714U 22054B   22166.48960346  .00028142  00000+0  44840-3 0  9998
2 52714  97.7021  82.3413 0148752 338.6084 105.8653 15.41538857  4185
2022-056A               
